$$SOE
2460721.500000000, A.D. 2025-Feb-15 00:00:00.0000, -2.209250368002579E+08, 2.318003735518734E+08, -6.976956400043219E+06,
2460728.500000000, A.D. 2025-Feb-22 00:00:00.0000, -2.317142392573261E+08, 2.253415512005446E+08, -7.736286833551183E+06,
2460735.500000000, A.D. 2025-Mar-01 00:00:00.0000, -2.421706230147063E+08, 2.185590181631829E+08, -8.484508682063743E+06,
2460742.500000000, A.D. 2025-Mar-08 00:00:00.0000, -2.522887040102498E+08, 2.114711250800420E+08, -9.220881408213705E+06,
2460749.500000000, A.D. 2025-Mar-15 00:00:00.0000, -2.620638890201045E+08, 2.040957767631319E+08, -9.944725244130127E+06,
2460756.500000000, A.D. 2025-Mar-22 00:00:00.0000, -2.714924067574633E+08, 1.964504136708976E+08, -1.065541738495816E+07,
2460763.500000000, A.D. 2025-Mar-29 00:00:00.0000, -2.805712414458508E+08, 1.885519969508641E+08, -1.135238856958771E+07,
2460770.500000000, A.D. 2025-Apr-05 00:00:00.0000, -2.892980686328957E+08, 1.804169994069487E+08, -1.203511984621302E+07,
2460777.500000000, A.D. 2025-Apr-12 00:00:00.0000, -2.976711951952617E+08, 1.720614017877761E+08, -1.270313935724816E+07,
2460784.500000000, A.D. 2025-Apr-19 00:00:00.0000, -3.056895036822606E+08, 1.635006928783416E+08, -1.335601921241393E+07,
2460791.500000000, A.D. 2025-Apr-26 00:00:00.0000, -3.133524006375706E+08, 1.547498726171217E+08, -1.399337249994579E+07,
2460798.500000000, A.D. 2025-May-03 00:00:00.0000, -3.206597686639602E+08, 1.458234577447494E+08, -1.461485044967254E+07,
2460805.500000000, A.D. 2025-May-10 00:00:00.0000, -3.276119220573099E+08, 1.367354895402276E+08, -1.522013975217717E+07,
2460812.500000000, A.D. 2025-May-17 00:00:00.0000, -3.342095658108026E+08, 1.274995432067784E+08, -1.580896004088918E+07,
2460819.500000000, A.D. 2025-May-24 00:00:00.0000, -3.404537576413639E+08, 1.181287385066293E+08, -1.638106155581839E+07,
2460826.500000000, A.D. 2025-May-31 00:00:00.0000, -3.463458724397240E+08, 1.086357516549428E+08, -1.693622299864543E+07,
2460833.500000000, A.D. 2025-Jun-07 00:00:00.0000, -3.518875693618019E+08, 9.903282941716652E+07, -1.747424943963071E+07,
2460840.500000000, A.D. 2025-Jun-14 00:00:00.0000, -3.570807637461008E+08, 8.933180451881817E+07, -1.799497010926934E+07,
2460847.500000000, A.D. 2025-Jun-21 00:00:00.0000, -3.619276024658324E+08, 7.954410890771280E+07, -1.849823644875496E+07,
2460854.500000000, A.D. 2025-Jun-28 00:00:00.0000, -3.664304394118203E+08, 6.968078647455171E+07, -1.898392055552284E+07,
2460861.500000000, A.D. 2025-Jul-05 00:00:00.0000, -3.705918124509587E+08, 5.975250724935964E+07, -1.945191370126982E+07,
2460868.500000000, A.D. 2025-Jul-12 00:00:00.0000, -3.744144228939918E+08, 4.976958215082399E+07, -1.990212487302814E+07,
2460875.500000000, A.D. 2025-Jul-19 00:00:00.0000, -3.779011171358231E+08, 3.974197761922769E+07, -2.033447939603847E+07,
2460882.500000000, A.D. 2025-Jul-26 00:00:00.0000, -3.810548701167507E+08, 2.967932999967528E+07, -2.074891765612257E+07,
2460889.500000000, A.D. 2025-Aug-02 00:00:00.0000, -3.838787704050971E+08, 1.959095963395941E+07, -2.114539391950270E+07,
2460896.500000000, A.D. 2025-Aug-09 00:00:00.0000, -3.863760067526105E+08, 9.485884595247354E+06, -2.152387524735484E+07,
2460903.500000000, A.D. 2025-Aug-16 00:00:00.0000, -3.885498559293339E+08, -6.271660379565069E+05, -2.188434051152205E+07,
2460910.500000000, A.D. 2025-Aug-23 00:00:00.0000, -3.904036714372069E+08, -1.073973938301710E+07, -2.222677953129232E+07,
2460917.500000000, A.D. 2025-Aug-30 00:00:00.0000, -3.919408726728968E+08, -2.084364573859172E+07, -2.255119229765013E+07,
2460924.500000000, A.D. 2025-Sep-06 00:00:00.0000, -3.931649358647685E+08, -3.093094437108582E+07, -2.285758806805323E+07,
2460931.500000000, A.D. 2025-Sep-13 00:00:00.0000, -3.940793883707772E+08, -4.099393059732756E+07, -2.314598437694496E+07,
2460938.500000000, A.D. 2025-Sep-20 00:00:00.0000, -3.946878029889019E+08, -5.102512581385642E+07, -2.341640639260027E+07,
2460945.500000000, A.D. 2025-Sep-27 00:00:00.0000, -3.949937911491661E+08, -6.101726736127888E+07, -2.366888645859026E+07,
2460952.500000000, A.D. 2025-Oct-04 00:00:00.0000, -3.950009969346094E+08, -7.096329768348773E+07, -2.390346358633574E+07,
2460959.500000000, A.D. 2025-Oct-11 00:00:00.0000, -3.947130922442471E+08, -8.085635372341475E+07, -2.412018293816023E+07,
2460966.500000000, A.D. 2025-Oct-18 00:00:00.0000, -3.941337727618488E+08, -9.068975682502054E+07, -2.431909534661129E+07,
2460973.500000000, A.D. 2025-Oct-25 00:00:00.0000, -3.932667545429424E+08, -1.004570031222177E+08, -2.450025687930790E+07,
2460980.500000000, A.D. 2025-Nov-01 00:00:00.0000, -3.921157711357085E+08, -1.101517543886963E+08, -2.466372844899470E+07,
2460987.500000000, A.D. 2025-Nov-08 00:00:00.0000, -3.906845711591829E+08, -1.197678293678737E+08, -2.480957547185786E+07,
2460994.500000000, A.D. 2025-Nov-15 00:00:00.0000, -3.889769161510052E+08, -1.292991956283329E+08, -2.493786758967325E+07,
2461001.500000000, A.D. 2025-Nov-22 00:00:00.0000, -3.869965782439745E+08, -1.387399617119060E+08, -2.504867847194474E+07,
2461008.500000000, A.D. 2025-Nov-29 00:00:00.0000, -3.847473377895010E+08, -1.480843684285699E+08, -2.514208558880948E+07,
2461015.500000000, A.D. 2025-Dec-06 00:00:00.0000, -3.822329831754563E+08, -1.573267794257270E+08, -2.521816975539681E+07,
2461022.500000000, A.D. 2025-Dec-13 00:00:00.0000, -3.794573123825724E+08, -1.664616743947654E+08, -2.527701476234142E+07,
2461029.500000000, A.D. 2025-Dec-20 00:00:00.0000, -3.764241327697213E+08, -1.754836438814934E+08, -2.531870732886823E+07,
2461036.500000000, A.D. 2025-Dec-27 00:00:00.0000, -3.731372601447552E+08, -1.843873830950072E+08, -2.534333706699361E+07,
2461043.500000000, A.D. 2026-Jan-03 00:00:00.0000, -3.696005185611861E+08, -1.931676853163555E+08, -2.535099637165755E+07,
2461050.500000000, A.D. 2026-Jan-10 00:00:00.0000, -3.658177407134532E+08, -2.018194355739770E+08, -2.534178030096076E+07,
2461057.500000000, A.D. 2026-Jan-17 00:00:00.0000, -3.617927686839122E+08, -2.103376046667821E+08, -2.531578647426815E+07,
2461064.500000000, A.D. 2026-Jan-24 00:00:00.0000, -3.575294549515685E+08, -2.187172435014590E+08, -2.527311499244905E+07,
2461071.500000000, A.D. 2026-Jan-31 00:00:00.0000, -3.530316636283177E+08, -2.269534777407523E+08, -2.521386838196756E+07,
2461078.500000000, A.D. 2026-Feb-07 00:00:00.0000, -3.483032718516259E+08, -2.350415028099900E+08, -2.513815157219371E+07,
2461085.500000000, A.D. 2026-Feb-14 00:00:00.0000, -3.433481710725065E+08, -2.429765792677963E+08, -2.504607192957914E+07,
2461092.500000000, A.D. 2026-Feb-21 00:00:00.0000, -3.381702678445010E+08, -2.507540279551294E+08, -2.493773933636050E+07,
2461099.500000000, A.D. 2026-Feb-28 00:00:00.0000, -3.327734851925283E+08, -2.583692237608272E+08, -2.481326611935975E+07,
2461106.500000000, A.D. 2026-Mar-07 00:00:00.0000, -3.271617666149954E+08, -2.658175899468089E+08, -2.467276679898937E+07,
2461113.500000000, A.D. 2026-Mar-14 00:00:00.0000, -3.213390799410183E+08, -2.730945953611202E+08, -2.451635810360111E+07,
2461120.500000000, A.D. 2026-Mar-21 00:00:00.0000, -3.153094192598311E+08, -2.801957516362759E+08, -2.434415917571934E+07,
2461127.500000000, A.D. 2026-Mar-28 00:00:00.0000, -3.090768069314772E+08, -2.871166093385090E+08, -2.415629170132689E+07,
2461134.500000000, A.D. 2026-Apr-04 00:00:00.0000, -3.026452962816814E+08, -2.938527540283415E+08, -2.395287998527323E+07,
2461141.500000000, A.D. 2026-Apr-11 00:00:00.0000, -2.960189747069085E+08, -3.003998025890327E+08, -2.373405102714165E+07,
2461148.500000000, A.D. 2026-Apr-18 00:00:00.0000, -2.892019670320481E+08, -3.067533998278044E+08, -2.349993461277825E+07,
2461155.500000000, A.D. 2026-Apr-25 00:00:00.0000, -2.821984390782526E+08, -3.129092153337629E+08, -2.325066342454055E+07,
2461162.500000000, A.D. 2026-May-02 00:00:00.0000, -2.750126014142067E+08, -3.188629406205677E+08, -2.298637317544538E+07,
2461169.500000000, A.D. 2026-May-09 00:00:00.0000, -2.676487131701798E+08, -3.246102866186717E+08, -2.270720278394239E+07,
2461176.500000000, A.D. 2026-May-16 00:00:00.0000, -2.601110855408489E+08, -3.301469813781223E+08, -2.241329461260143E+07,
2461183.500000000, A.D. 2026-May-23 00:00:00.0000, -2.524040849291443E+08, -3.354687669599003E+08, -2.210479469193386E+07,
2461190.500000000, A.D. 2026-May-30 00:00:00.0000, -2.445321378135949E+08, -3.405713951978684E+08, -2.178185271281332E+07,
2461197.500000000, A.D. 2026-Jun-06 00:00:00.0000, -2.364997376611637E+08, -3.454506256093517E+08, -2.144462202658165E+07,
2461204.500000000, A.D. 2026-Jun-13 00:00:00.0000, -2.283114502271466E+08, -3.501022252633845E+08, -2.109325997392082E+07,
2461211.500000000, A.D. 2026-Jun-20 00:00:00.0000, -2.199719177533021E+08, -3.545219676892688E+08, -2.072792825854045E+07,
2461218.500000000, A.D. 2026-Jun-27 00:00:00.0000, -2.114858637733818E+08, -3.587056311735421E+08, -2.034879323872483E+07,
2461225.500000000, A.D. 2026-Jul-04 00:00:00.0000, -2.028580985371423E+08, -3.626489972287951E+08, -1.995602620111185E+07,
2461232.500000000, A.D. 2026-Jul-11 00:00:00.0000, -1.940935248101069E+08, -3.663478493758796E+08, -1.954980365189105E+07,
2461239.500000000, A.D. 2026-Jul-18 00:00:00.0000, -1.851971439681495E+08, -3.697979722247957E+08, -1.913030763295004E+07,
2461246.500000000, A.D. 2026-Jul-25 00:00:00.0000, -1.761740623748590E+08, -3.729951508633542E+08, -1.869772606593452E+07,
2461253.500000000, A.D. 2026-Aug-01 00:00:00.0000, -1.670294980054204E+08, -3.759351706139850E+08, -1.825225313331172E+07,
2461260.500000000, A.D. 2026-Aug-08 00:00:00.0000, -1.577687871123866E+08, -3.786138172088363E+08, -1.779408971990663E+07,
2461267.500000000, A.D. 2026-Aug-15 00:00:00.0000, -1.483973905279472E+08, -3.810268769514965E+08, -1.732344391742972E+07,
2461274.500000000, A.D. 2026-Aug-22 00:00:00.0000, -1.389209003748901E+08, -3.831701356675753E+08, -1.684053142405075E+07,
2461281.500000000, A.D. 2026-Aug-29 00:00:00.0000, -1.293450494884730E+08, -3.850393778434223E+08, -1.634557574307305E+07,
$$EOE